STARLINK-5012           
1 53918U 22119AJ  24183.44143055  .00001498  00000+0  11218-3 0  9992
2 53918  53.2151 200.4734 0001342  88.5238 271.5907 15.08840971 98796
STARLINK-5023           
1 53919U 22119AK  24183.43774639  .00000907  00000+0  75055-4 0  9994
2 53919  53.2145 200.4488 0001256  84.6665 275.4471 15.08840897 98797
STARLINK-5025           
1 53920U 22119AL  24183.45712742  .00000342  00000+0  39576-4 0  9996
2 53920  53.2152 200.5607 0001200  89.6635 270.4494 15.08839517 98799
STARLINK-5002           
1 53922U 22119AN  24183.42668917  .00000762  00000+0  65927-4 0  9994
2 53922  53.2148 200.3819 0001297  95.5552 264.5588 15.08842795 98799
STARLINK-5004           
1 53923U 22119AP  24183.36782448  .00000976  00000+0  79428-4 0  9992
2 53923  53.2151 200.7244 0001377  82.9924 277.1224 15.08838097 98788
STARLINK-5001           
1 53924U 22119AQ  24183.44004491  .00001295  00000+0  99410-4 0  9995
2 53924  53.2155 195.4783 0001289  86.8035 273.3104 15.08845543 98867
STARLINK-5011           
1 53925U 22119AR  24183.34571532 -.00000020  00000+0  16814-4 0  9993
2 53925  53.2158 200.5985 0001523  97.9363 262.1802 15.08845580 98784
STARLINK-5014           
1 53926U 22119AS  24183.29651291  .00000974  00000+0  79280-4 0  9992
2 53926  53.2146 196.0023 0001361  85.2805 274.8343 15.08844734 98853
STARLINK-5008           
1 53927U 22119AT  24183.44741997  .00000489  00000+0  48828-4 0  9998
2 53927  53.2154 195.5364 0001169  97.9530 262.1595 15.08841879 98863
STARLINK-5009           
1 53928U 22119AU  24183.43866019  .00000076  00000+0  22846-4 0  9995
2 53928  53.2166 190.4803 0001267  87.6822 272.4315 15.08848624 98935
STARLINK-5018           
1 53929U 22119AV  24183.35412440  .00001299  00000+0  99693-4 0  9994
2 53929  53.2150 201.3318 0001243  93.9701 266.1433 15.08837767 98771
STARLINK-5010           
1 53930U 22119AW  24183.42392800  .00000655  00000+0  59220-4 0  9998
2 53930  53.2152 190.3862 0001271  87.1284 272.9854 15.08841219 98935
STARLINK-5015           
1 53931U 22119AX  24183.41517775  .00001014  00000+0  81811-4 0  9999
2 53931  53.2152 185.3505 0001211  85.4181 274.6950 15.08841359 99005
STARLINK-4772           
1 53932U 22119AY  24183.38947375  .00000861  00000+0  72159-4 0  9993
2 53932  53.2152 185.8916 0001422  87.1666 272.9489 15.08838578 99005
STARLINK-4782           
1 53933U 22119AZ  24183.30249746  .00000764  00000+0  66092-4 0  9994
2 53933  53.2159 191.0502 0001400  92.5399 267.5753 15.08844522 98911
STARLINK-4775           
1 53934U 22119BA  24183.38579023  .00000908  00000+0  75145-4 0  9996
2 53934  53.2157 185.8661 0001418  95.3014 264.8140 15.08836931 99018
STARLINK-5000           
1 53935U 22119BB  24183.30204786  .00000646  00000+0  58663-4 0  9995
2 53935  53.2156 176.0713 0001438  87.8597 272.2560 15.08840929 99125
STARLINK-4791           
1 53936U 22119BC  24183.42254742 -.00000302  00000+0 -90029-6 0  9991
2 53936  53.2169 185.3857 0001505  97.9237 262.1926 15.08840829 99011
STARLINK-4765           
1 53937U 22119BD  24183.37335666  .00000544  00000+0  52293-4 0  9996
2 53937  53.2166 180.8111 0001342  94.8220 265.2925 15.08836344 99064
STARLINK-4633           
1 53964U 22125A   24183.08541770  .00001842  00000+0  13376-3 0  9996
2 53964  53.2175 112.3229 0001220 100.0210 260.0920 15.08839245 96235
STARLINK-4578           
1 53965U 22125B   24183.21516336  .00003199  00000+0  21892-3 0  9991
2 53965  53.2170 111.7063 0001266 106.5236 253.5895 15.08848686 96258
STARLINK-4635           
1 53966U 22125C   24183.80667298 -.00023297  00000+0 -14500-2 0  9991
2 53966  53.2156 109.0031 0001170  82.0073 278.1052 15.08851030 96412
STARLINK-4634           
1 53967U 22125D   24183.53803899  .00000674  00000+0  60392-4 0  9995
2 53967  53.2177 110.1686 0001337 100.4825 259.6318 15.08849316 96378
STARLINK-4629           
1 53968U 22125E   24183.52699222  .00008033  00000+0  52207-3 0  9990
2 53968  53.2148 110.1048 0001541  73.8585 286.2576 15.08849490 96377
STARLINK-4468           
1 53969U 22125F   24183.53436690  .00004287  00000+0  28730-3 0  9991
2 53969  53.2147 110.1488 0001991  94.8783 265.2437 15.08839428 96370
STARLINK-4567           
1 53970U 22125G   24183.20546595  .00026489  00000+0  16744-2 0  9992
2 53970  53.2160 106.6677 0001450  71.2206 288.8943 15.08878784 96333
STARLINK-4639           
1 53971U 22125H   24183.53067346 -.00000397  00000+0 -68419-5 0  9992
2 53971  53.2158 110.1247 0001371  96.6673 263.4475 15.08841140 96374
STARLINK-5156           
1 53973U 22125K   24183.52330831  .00011840  00000+0  76032-3 0  9996
2 53973  53.2143 110.0782 0001401  95.8258 264.2893 15.08861968 96303
STARLINK-5159           
1 53974U 22125L   24183.16078390 -.00000186  00000+0  63831-5 0  9993
2 53974  53.2153  91.4285 0001418 108.9437 251.1709 15.08849213 96533
STARLINK-5137           
1 53975U 22125M   24183.49244784  .00026056  00000+0  16478-2 0  9997
2 53975  53.2157 104.9161 0001258 112.8732 247.2393 15.08870313 96445
STARLINK-5134           
1 53976U 22125N   24183.47365606  .00004636  00000+0  30914-3 0  9995
2 53976  53.2146  90.5386 0001379 112.3595 247.7544 15.08841267 96640
STARLINK-5094           
1 53977U 22125P   24183.80900815  .00001291  00000+0  99257-4 0  9990
2 53977  53.2170 104.0313 0001122 100.4352 259.6766 15.08821290 96488
STARLINK-5148           
1 53978U 22125Q   24183.06192749 -.00001207  00000+0 -57699-4 0  9991
2 53978  53.2166 107.1824 0001430 101.6507 258.4646 15.08857442 96305
STARLINK-5123           
1 53979U 22125R   24183.20176758 -.00000096  00000+0  12081-4 0  9990
2 53979  53.2165 106.6353 0001500 109.0092 251.1063 15.08860867 96392
STARLINK-5133           
1 53980U 22125S   24183.50718302 -.00000048  00000+0  15080-4 0  9991
2 53980  53.2157 104.9910 0000786  83.5434 276.5647 15.08851090 96449
STARLINK-5149           
1 53981U 22125T   24183.77170029  .00003380  00000+0  23041-3 0  9995
2 53981  53.2190  88.8610 0001027 100.1463 259.9645 15.08832560 96692
STARLINK-5120           
1 53982U 22125U   24183.73400882  .00006212  00000+0  40799-3 0  9991
2 53982  53.2161  99.2920 0002226  74.1747 285.9490 15.08845181 96542
STARLINK-5103           
1 53983U 22125V   24183.44785847  .00016428  00000+0  10470-2 0  9999
2 53983  53.2157  90.3731 0000651  82.3583 277.7483 15.08870882 96579
STARLINK-5142           
1 53984U 22125W   24183.48008538  .00002491  00000+0  17441-3 0  9990
2 53984  53.2183 100.5510 0001310  83.1201 276.9940 15.08861976 96503
STARLINK-5147           
1 53985U 22125X   24183.48746990  .00002084  00000+0  14895-3 0  9990
2 53985  53.2155 100.5937 0001455  91.1130 269.0028 15.08848524 96500
STARLINK-5119           
1 53986U 22125Y   24183.43311909  .00002623  00000+0  18276-3 0  9990
2 53986  53.2157  90.2839 0001235  82.0554 278.0579 15.08848703 96560
STARLINK-5112           
1 53987U 22125Z   24183.48378223  .00006665  00000+0  43616-3 0  9994
2 53987  53.2160 100.5694 0001240  86.9241 273.1893 15.08862314 96436
STARLINK-5113           
1 53988U 22125AA  24183.47641550  .00009053  00000+0  58579-3 0  9998
2 53988  53.2155 100.5242 0001282  93.0705 267.0434 15.08862755 96500
STARLINK-5115           
1 53989U 22125AB  24183.14152237  .00001746  00000+0  12774-3 0  9990
2 53989  53.2174 101.9929 0001226  91.1274 268.9858 15.08851698 96387
STARLINK-5075           
1 53990U 22125AC  24183.47893728  .00002425  00000+0  73986-4 0  9993
2 53990  53.2146  98.4368 0001448  99.8003 260.3166 15.38105254 96455
STARLINK-5118           
1 53991U 22125AD  24183.46259917 -.00001652  00000+0 -85690-4 0  9997
2 53991  53.2168  90.4042 0002146  83.0379 277.0857 15.08842259 96562
STARLINK-5108           
1 53992U 22125AE  24183.79656910  .00004309  00000+0  28871-3 0  9995
2 53992  53.2176  98.9761 0001983 111.7633 248.3570 15.08836272 96553
STARLINK-5121           
1 53993U 22125AF  24183.77305895  .00015967  00000+0  10179-2 0  9990
2 53993  53.2145  93.8268 0001307 103.4216 256.6922 15.08880415 96620
STARLINK-5125           
1 53994U 22125AG  24183.18934801  .00013963  00000+0  89355-3 0  9998
2 53994  53.2155 101.5790 0001295 109.7991 250.3141 15.08844460 96460
STARLINK-5097           
1 53995U 22125AH  24183.46167620  .00001724  00000+0  12633-3 0  9994
2 53995  53.2175 100.4416 0001469 100.7679 259.3479 15.08851519 96425
STARLINK-5131           
1 53996U 22125AJ  24183.18565965  .00017483  00000+0  11131-2 0  9998
2 53996  53.2160 101.5546 0001444 114.1157 245.9987 15.08863607 96469
STARLINK-5130           
1 53997U 22125AK  24183.48470789  .00013209  00000+0  84583-3 0  9995
2 53997  53.2145  90.5971 0001444 105.6834 254.4318 15.08867770 96647
STARLINK-5128           
1 53998U 22125AL  24183.90693800  .00002003  00000+0  14394-3 0  9997
2 53998  53.2144  98.2341 0001569 114.1540 245.9616 15.08828901 96571
STARLINK-5079           
1 53999U 22125AM  24183.19302371 -.00000448  00000+0 -10058-4 0  9996
2 53999  53.2177 101.6009 0001376  94.6427 265.4722 15.08852447 96397
STARLINK-5088           
1 54000U 22125AN  24183.74598789  .00002167  00000+0  15421-3 0  9997
2 54000  53.2153  89.3908 0001439  92.6934 267.4223 15.08830787 96689
STARLINK-5109           
1 54002U 22125AQ  24183.43680506  .00015416  00000+0  98377-3 0  9996
2 54002  53.2168  90.3248 0001307 105.9327 254.1809 15.08869600 96571
STARLINK-5114           
1 54003U 22125AR  24183.18200842 -.00003018  00000+0 -17171-3 0  9990
2 54003  53.2189 101.5292 0001859 110.6242 249.4949 15.08816413 96442
STARLINK-5129           
1 54004U 22125AS  24183.50212970  .00004541  00000+0  30320-3 0  9993
2 54004  53.2149  99.9762 0001539  96.5417 263.5750 15.08843825 96491
STARLINK-5135           
1 54005U 22125AT  24183.77077099  .00004800  00000+0  31956-3 0  9998
2 54005  53.2127  98.8060 0001537 120.2916 239.8228 15.08826120 96534
